O3B MPOWER F1           
1 54755U 22174A   26186.46718191 -.00000011  00000+0  00000+0 0  9993
2 54755   0.0502 340.0007 0006569 135.5098 125.3195  5.00114821 66275
O3B MPOWER F2           
1 54756U 22174B   26186.50010205 -.00000011  00000+0  00000+0 0  9990
2 54756   0.0460 340.0476 0005823 119.2550 260.7634  5.00115004 66369
O3B MPOWER F4           
1 56367U 23059A   26186.36445073 -.00000011  00000+0  00000+0 0  9992
2 56367   0.0631 351.5838 0007714 116.7662 251.7340  5.00115511 59511
O3B MPOWER F3           
1 56368U 23059B   26185.79793105 -.00000012  00000+0  00000+0 0  9992
2 56368   0.0638 351.0425 0006695 109.8858 259.1469  5.00116546 55613
O3B MPOWER F5           
1 58346U 23175A   26186.49858946 -.00000011  00000+0  00000+0 0  9991
2 58346   0.0511   9.9813 0005388 112.3416 237.7293  5.00115949 50357
O3B MPOWER F6           
1 58347U 23175B   26186.39917268 -.00000011  00000+0  00000+0 0  9994
2 58347   0.0533   1.7692 0004448  99.6619 258.6189  5.00115858 49268
O3B MPOWER F7           
1 62362U 24244A   26186.26567324 -.00000011  00000+0  00000+0 0  9994
2 62362   0.0666 344.6194 0005966 115.1245 260.3235  5.00115405 27433
O3B MPOWER F8           
1 62363U 24244B   26185.83283748 -.00000012  00000+0  00000+0 0  9993
2 62363   0.0143 351.3774 0005843 101.0939 267.5953  5.00115079 21753
O3B MPOWER F10          
1 64867U 25153B   26186.13204941 -.00000012  00000+0  00000+0 0  9996
2 64867   0.0576   3.4532 0002134 246.3720 110.1516  5.00114957 22935
