{"fetched_at":"2026-07-06T08:47:13.216Z","source":"https://celestrak.org/NORAD/elements/gp.php?NAME=O3B&FORMAT=JSON","constellation":"o3b-mpower","records":[{"OBJECT_NAME":"O3B MPOWER F1","OBJECT_ID":"2022-174A","EPOCH":"2026-07-05T11:12:44.517024","CLASSIFICATION_TYPE":"U","MEAN_MOTION":5.00114821,"ECCENTRICITY":0.000657,"INCLINATION":0.0502,"RA_OF_ASC_NODE":340.0007,"ARG_OF_PERICENTER":135.5098,"MEAN_ANOMALY":125.3195,"EPHEMERIS_TYPE":0,"NORAD_CAT_ID":54755,"ELEMENT_SET_NO":999,"REV_AT_EPOCH":6627,"BSTAR":0,"MEAN_MOTION_DOT":-1.1e-7,"MEAN_MOTION_DDOT":0},{"OBJECT_NAME":"O3B MPOWER F2","OBJECT_ID":"2022-174B","EPOCH":"2026-07-05T12:00:08.817120","CLASSIFICATION_TYPE":"U","MEAN_MOTION":5.00115004,"ECCENTRICITY":0.00058239,"INCLINATION":0.046,"RA_OF_ASC_NODE":340.0476,"ARG_OF_PERICENTER":119.255,"MEAN_ANOMALY":260.7634,"EPHEMERIS_TYPE":0,"NORAD_CAT_ID":54756,"ELEMENT_SET_NO":999,"REV_AT_EPOCH":6636,"BSTAR":0,"MEAN_MOTION_DOT":-1.1e-7,"MEAN_MOTION_DDOT":0},{"OBJECT_NAME":"O3B MPOWER F4","OBJECT_ID":"2023-059A","EPOCH":"2026-07-05T08:44:48.543072","CLASSIFICATION_TYPE":"U","MEAN_MOTION":5.00115511,"ECCENTRICITY":0.00077145,"INCLINATION":0.0631,"RA_OF_ASC_NODE":351.5838,"ARG_OF_PERICENTER":116.7662,"MEAN_ANOMALY":251.734,"EPHEMERIS_TYPE":0,"NORAD_CAT_ID":56367,"ELEMENT_SET_NO":999,"REV_AT_EPOCH":5951,"BSTAR":0,"MEAN_MOTION_DOT":-1.1e-7,"MEAN_MOTION_DDOT":0},{"OBJECT_NAME":"O3B MPOWER F3","OBJECT_ID":"2023-059B","EPOCH":"2026-07-04T19:09:01.242720","CLASSIFICATION_TYPE":"U","MEAN_MOTION":5.00116546,"ECCENTRICITY":0.0006695,"INCLINATION":0.0638,"RA_OF_ASC_NODE":351.0425,"ARG_OF_PERICENTER":109.8858,"MEAN_ANOMALY":259.1469,"EPHEMERIS_TYPE":0,"NORAD_CAT_ID":56368,"ELEMENT_SET_NO":999,"REV_AT_EPOCH":5561,"BSTAR":0,"MEAN_MOTION_DOT":-1.2e-7,"MEAN_MOTION_DDOT":0},{"OBJECT_NAME":"O3B MPOWER F5","OBJECT_ID":"2023-175A","EPOCH":"2026-07-05T11:57:58.129344","CLASSIFICATION_TYPE":"U","MEAN_MOTION":5.00115949,"ECCENTRICITY":0.00053886,"INCLINATION":0.0511,"RA_OF_ASC_NODE":9.9813,"ARG_OF_PERICENTER":112.3416,"MEAN_ANOMALY":237.7293,"EPHEMERIS_TYPE":0,"NORAD_CAT_ID":58346,"ELEMENT_SET_NO":999,"REV_AT_EPOCH":5035,"BSTAR":0,"MEAN_MOTION_DOT":-1.1e-7,"MEAN_MOTION_DDOT":0},{"OBJECT_NAME":"O3B MPOWER F6","OBJECT_ID":"2023-175B","EPOCH":"2026-07-05T09:34:48.519552","CLASSIFICATION_TYPE":"U","MEAN_MOTION":5.00115858,"ECCENTRICITY":0.00044484,"INCLINATION":0.0533,"RA_OF_ASC_NODE":1.7692,"ARG_OF_PERICENTER":99.6619,"MEAN_ANOMALY":258.6189,"EPHEMERIS_TYPE":0,"NORAD_CAT_ID":58347,"ELEMENT_SET_NO":999,"REV_AT_EPOCH":4926,"BSTAR":0,"MEAN_MOTION_DOT":-1.1e-7,"MEAN_MOTION_DDOT":0},{"OBJECT_NAME":"O3B MPOWER F7","OBJECT_ID":"2024-244A","EPOCH":"2026-07-05T06:22:34.167072","CLASSIFICATION_TYPE":"U","MEAN_MOTION":5.00115405,"ECCENTRICITY":0.0005966,"INCLINATION":0.0666,"RA_OF_ASC_NODE":344.6194,"ARG_OF_PERICENTER":115.1245,"MEAN_ANOMALY":260.3235,"EPHEMERIS_TYPE":0,"NORAD_CAT_ID":62362,"ELEMENT_SET_NO":999,"REV_AT_EPOCH":2743,"BSTAR":0,"MEAN_MOTION_DOT":-1.1e-7,"MEAN_MOTION_DDOT":0},{"OBJECT_NAME":"O3B MPOWER F8","OBJECT_ID":"2024-244B","EPOCH":"2026-07-04T19:59:17.158272","CLASSIFICATION_TYPE":"U","MEAN_MOTION":5.00115079,"ECCENTRICITY":0.0005843,"INCLINATION":0.0143,"RA_OF_ASC_NODE":351.3774,"ARG_OF_PERICENTER":101.0939,"MEAN_ANOMALY":267.5953,"EPHEMERIS_TYPE":0,"NORAD_CAT_ID":62363,"ELEMENT_SET_NO":999,"REV_AT_EPOCH":2175,"BSTAR":0,"MEAN_MOTION_DOT":-1.2e-7,"MEAN_MOTION_DDOT":0},{"OBJECT_NAME":"O3B MPOWER F10","OBJECT_ID":"2025-153B","EPOCH":"2026-07-05T03:10:09.069024","CLASSIFICATION_TYPE":"U","MEAN_MOTION":5.00114957,"ECCENTRICITY":0.0002135,"INCLINATION":0.0576,"RA_OF_ASC_NODE":3.4532,"ARG_OF_PERICENTER":246.372,"MEAN_ANOMALY":110.1516,"EPHEMERIS_TYPE":0,"NORAD_CAT_ID":64867,"ELEMENT_SET_NO":999,"REV_AT_EPOCH":2293,"BSTAR":0,"MEAN_MOTION_DOT":-1.2e-7,"MEAN_MOTION_DDOT":0}]}
